0 COSMOS 249 DEB
1 03874U 68091BH  13281.20804231  .00000030  00000-0  12747-3 0   933
2 03874 062.2719 191.4053 0661331 235.8829 288.8133 13.04254727 94080
0 COSMOS 249 DEB
1 03874U 68091BH  13284.19928064  .00000064  00000-0  16409-3 0   942
2 03874 062.2720 183.9141 0660935 236.5412 293.6229 13.04257196 94477
0 COSMOS 249 DEB
1 03874U 68091BH  13287.11016017 -.00000072  00000-0  16957-4 0   953
2 03874 062.2717 176.6240 0660505 237.1790 281.1710 13.04261881 94856
0 COSMOS 249 DEB
1 03874U 68091BH  13289.78741642  .00000211  00000-0  32479-3 0   968
2 03874 062.2720 169.9190 0660216 237.7676 251.8118 13.04264070 95206
0 COSMOS 249 DEB
1 03874U 68091BH  13290.75513113  .00000441  00000-0  47744-3 0   974
2 03874 062.2746 167.4982 0661577 237.9521 115.5997 13.04264293 93912
0 COSMOS 249 DEB
1 03874U 68091BH  13292.68068065  .00000898  00000-0  10731-2 0   981
2 03874 062.2715 162.6730 0659863 238.4024 156.7118 13.04261958 95587
0 COSMOS 249 DEB
1 03874U 68091BH  13295.08599183  .00001195  00000-0  13985-2 0   994
2 03874 062.2718 156.6494 0659644 238.9349 290.4843 13.04264240 95894
